SKYKRAFT-1A             
1 55054U 23001AX  26068.71064616  .00008177  00000+0  30069-3 0  9991
2 55054  97.3349 127.6290 0011277 121.5092 238.7251 15.28083228176529
STARLINK-30820          
1 58190U 23167R   26068.52241888 -.00000474  00000+0 -77075-5 0  9999
2 58190  42.9985 143.9823 0000351 241.3107 118.7709 15.27569171130965
